SatCatId,ObjectName,LaunchYear,OrbitalPeriod,LaunchMass,StatusCode,Inclination,Status,UcsData,OrbitClassEstimated,LaunchSiteCountry,Owner,UseType,Purpose,LaunchVehicleClass,TLE1,TLE2,MeanMotion,Eccentricity,OrbitClass
37227,FASTRAC 1 (USA 222),2010,97.19,55.0,-,71.97,Inactive,1,LEO,USA,USA,Civil/Military,Technology Development,Minotaur,1 37227U 10062F   24030.08789867  .00001454  00000+0  19154-3 0  9998,2 37227  71.9675 274.1658 0017111 303.8370  56.1164 14.81655540236964,14.8165554,0.0017111,LEO
37234,ZHONGXING-20A,2010,1463.16,2300.0,-,4.99,Inactive,1,GSO,PRC,China,Military,Communications,Long March,1 37234U 10064A   24030.20706559 -.00000113  00000+0  00000+0 0  9997,2 37234   4.9937  97.1476 0022456 233.4419 178.0107  0.98417497 48265,0.98417497,0.0022456,GSO
29047,FORMOSAT-3 FM6,2006,100.72,70.0,-,71.98,Inactive,1,LEO,USA,Taiwan,Civil/Government,Earth Observation,Minotaur,1 29047U 06011A   24030.15273347  .00000753  00000+0  30498-3 0  9992,2 29047  71.9781 290.9355 0051272 299.8021  59.8023 14.29756676930145,14.29756676,0.0051272,LEO
29048,FORMOSAT-3 FM1,2006,100.72,70.0,-,71.97,Inactive,1,LEO,USA,Taiwan,Civil/Government,Earth Observation,Minotaur,1 29048U 06011B   24030.48549410  .00000870  00000+0  35128-3 0  9991,2 29048  71.9652 199.6622 0044941 261.8838  97.7199 14.29718231932631,14.29718231,0.0044941,LEO
29049,FORMOSAT-3 FM5,2006,100.71,-1.0,-,72.02,Inactive,0,LEO,USA,Taiwan,Unknown,Unknown,Unknown,1 29049U 06011C   24030.41514702  .00000835  00000+0  33857-3 0  9999,2 29049  72.0203  18.9576 0036954 275.8222  83.8703 14.29784857928431,14.29784857,0.0036954,LEO
29050,FORMOSAT-3 FM3,2006,98.52,70.0,-,72.02,Inactive,1,LEO,USA,Taiwan,Civil/Government,Earth Observation,Minotaur,1 29050U 06011D   24029.43117138  .00002407  00000+0  48570-3 0  9998,2 29050  72.0158  29.9444 0045003  79.8150 280.8075 14.61697881949064,14.61697881,0.0045003,LEO
29051,FORMOSAT-3 FM4,2006,100.71,70.0,-,72.0,Inactive,1,LEO,USA,Taiwan,Civil/Government,Earth Observation,Minotaur,1 29051U 06011E   24030.09349879  .00000621  00000+0  25122-3 0  9996,2 29051  72.0039 279.0463 0067103 160.0117 200.3673 14.29861625930999,14.29861625,0.0067103,LEO
29052,FORMOSAT-3 FM2,2006,100.7,70.0,-,72.03,Inactive,1,LEO,USA,Taiwan,Civil/Government,Earth Observation,Minotaur,1 29052U 06011F   24030.35067894  .00000952  00000+0  38179-3 0  9993,2 29052  72.0349 356.6988 0041602 233.9947 125.7331 14.29951579929385,14.29951579,0.0041602,LEO
4478,INTELSAT 3-F8,1970,1408.09,-1.0,-,3.32,Inactive,0,GSO,USA,INTELSAT,Unknown,Unknown,Unknown,1 04478U 70055A   24029.60228566 -.00000143  00000+0  00000+0 0  9999,2 04478   3.3138  78.0430 0315179  89.2701  47.2501  1.02265640113930,1.0226564,0.0315179,GSO
12677,HIMAWARI-2 (GMS-2),1981,1446.53,-1.0,-,9.85,Inactive,0,GSO,Japan,Japan,Unknown,Unknown,Unknown,1 12677U 81076A   24029.85319935  .00000128  00000+0  00000+0 0  9994,2 12677   9.8451 310.8849 0009444 304.6039 234.2417  0.99548508123570,0.99548508,0.0009444,GSO
20872,SBS-6,1990,1454.63,-1.0,-,11.32,Inactive,0,GSO,French Guiana,USA,Unknown,Unknown,Unknown,1 20872U 90091A   24029.32896748 -.00000241  00000+0  00000+0 0  9998,2 20872  11.3232  34.9605 0005912 117.6731  70.0406  0.98994607 37484,0.98994607,0.0005912,GSO
12681,COSMOS 1295,1981,104.61,-1.0,UNK,82.92,Inactive,0,LEO,Russia,Russia/USSR,Unknown,Unknown,Unknown,1 12681U 81077A   24030.14784774  .00000063  00000+0  48068-4 0  9990,2 12681  82.9159  48.4130 0043938 181.7086 243.8835 13.76507139132935,13.76507139,0.0043938,LEO
20873,GALAXY 6 (G-6),1990,1443.42,-1.0,-,13.44,Inactive,0,GSO,French Guiana,USA,Unknown,Unknown,Unknown,1 20873U 90091B   24029.59706431  .00000087  00000+0  00000+0 0  9994,2 20873  13.4399  16.2268 0003999 207.6887 325.4301  0.99762627 37774,0.99762627,0.0003999,GSO
4507,NNSS 19 (TRANSIT 19),1970,106.59,-1.0,UNK,89.95,Inactive,0,LEO,USA,USA,Unknown,Unknown,Unknown,1 04507U 70067A   24030.51610162  .00000182  00000+0  24090-3 0  9995,2 04507  89.9549 235.7741 0174069 109.4121 252.5935 13.51007234630484,13.51007234,0.0174069,LEO
4510,OPS 7329,1970,1435.35,-1.0,-,10.32,Inactive,0,GSO,USA,USA,Unknown,Unknown,Unknown,1 04510U 70069A   24030.33414727 -.00000247  00000+0  00000+0 0  9994,2 04510  10.3169 184.2768 0999559  74.3052 311.1837  1.00323911 16073,1.00323911,0.0999559,GSO
4512,OPS 0203 (DMSP 5A F2),1970,100.32,-1.0,-,98.83,Inactive,0,LEO,USA,USA,Unknown,Unknown,Unknown,1 04512U 70070A   24029.69548554  .00000416  00000+0  15732-3 0  9990,2 04512  98.8315 304.7771 0064683 126.6880 234.0272 14.35350327786830,14.35350327,0.0064683,LEO
29092,RSS-1 (YAOGAN 1),2006,96.98,-1.0,UNK,97.82,Inactive,0,LEO,PRC,China,Unknown,Unknown,Unknown,1 29092U 06015A   24030.07536103  .00001327  00000+0  16262-3 0  9990,2 29092  97.8193  58.2071 0001450  91.5270 268.6111 14.84786092960793,14.84786092,0.000145,LEO
20918,INMARSAT 2-F1,1990,1456.36,-1.0,-,12.62,Inactive,0,GSO,USA,INMARSAT,Unknown,Unknown,Unknown,1 20918U 90093A   24029.82966150 -.00000212  00000+0  00000+0 0  9999,2 20918  12.6242  11.4862 0007895 346.7912 192.7155  0.98877211117655,0.98877211,0.0007895,GSO
20923,GORIZONT 21,1990,1435.69,-1.0,-,13.56,Inactive,0,GSO,Kazakhstan,Russia/USSR,Unknown,Unknown,Unknown,1 20923U 90094A   24029.12583637 -.00000030  00000+0  00000+0 0  9992,2 20923  13.5630 343.0945 0006101 226.6579 321.1473  1.00300054121726,1.00300054,0.0006101,GSO
20945,SATCOM C1,1990,1451.87,-1.0,UNK,12.65,Inactive,0,GSO,French Guiana,USA,Unknown,Unknown,Unknown,1 20945U 90100A   24030.50606380 -.00000092  00000+0  00000+0 0  9997,2 20945  12.6517  21.1845 0014038   8.1724  20.0645  0.99182218118639,0.99182218,0.0014038,GSO
20946,GSTAR 4,1990,1452.46,-1.0,-,13.68,Inactive,0,GSO,French Guiana,USA,Unknown,Unknown,Unknown,1 20946U 90100B   24029.56669338  .00000073  00000+0  00000+0 0  9992,2 20946  13.6836  16.2954 0005896 317.7490  52.1434  0.99142257 38195,0.99142257,0.0005896,GSO
4564,COSMOS 367,1970,104.46,-1.0,UNK,65.28,Inactive,0,LEO,Kazakhstan,Russia/USSR,Unknown,Unknown,Unknown,1 04564U 70079A   24030.51077578 -.00000048  00000+0  36498-4 0  9997,2 04564  65.2780 104.7689 0053108  34.9592 325.4936 13.78491703683971,13.78491703,0.0053108,LEO
20953,GORIZONT 22,1990,1436.69,-1.0,-,13.53,Inactive,0,GSO,Kazakhstan,Russia/USSR,Unknown,Unknown,Unknown,1 20953U 90102A   24029.55327119  .00000061  00000+0  00000+0 0  9996,2 20953  13.5304 343.5141 0001909   1.9895 354.4401  1.00230714121642,1.00230714,0.0001909,GSO
20959,NAVSTAR 22 (USA 66),1990,765.32,-1.0,-,55.42,Inactive,0,MEO,USA,USA,Unknown,Unknown,Unknown,1 20959U 90103A   24030.22890213 -.00000031  00000+0  00000+0 0  9997,2 20959  55.4237  81.5784 0019801  78.2943 282.0013  1.88155641239681,1.88155641,0.0019801,MEO
37344,ELEKTRO-L 1 (GOMS 2),2011,1437.82,1766.0,-,7.69,Inactive,1,GSO,Kazakhstan,Russia/USSR,Government,Earth Observation,Zenit,1 37344U 11001A   24029.71175215  .00000049  00000+0  00000+0 0  9991,2 37344   7.6883  62.8104 0005381   9.5856  15.1582  1.00151788 47774,1.00151788,0.0005381,GSO
4578,COSMOS 371,1970,98.99,-1.0,UNK,74.0,Inactive,0,LEO,Russia,Russia/USSR,Unknown,Unknown,Unknown,1 04578U 70083A   24029.42244402  .00000610  00000+0  14937-3 0  9994,2 04578  73.9985  24.7951 0003678 238.3692 121.7112 14.54638506819063,14.54638506,0.0003678,LEO
29163,THAICOM 5,2006,1451.5,-1.0,-,3.77,Inactive,0,GSO,French Guiana,Thailand,Unknown,Unknown,Unknown,1 29163U 06020B   24030.12268213 -.00000239  00000+0  00000+0 0  9996,2 29163   3.7689  83.2398 0003016 158.9351 259.7393  0.99208127 64669,0.99208127,0.0003016,GSO
4588,COSMOS 372,1970,100.25,-1.0,UNK,74.06,Inactive,0,LEO,Russia,Russia/USSR,Military,Unknown,Kosmos,1 04588U 70086A   24030.42680432  .00000302  00000+0  11191-3 0  9994,2 04588  74.0567   9.2398 0013421 345.1396 136.1843 14.36367334788581,14.36367334,0.0013421,LEO
12783,COSMOS 1299,1981,103.94,-1.0,UNK,65.12,Inactive,0,LEO,Kazakhstan,Russia/USSR,Unknown,Unknown,Unknown,1 12783U 81081A   24029.51513556 -.00000043  00000+0  39860-4 0  9994,2 12783  65.1161 170.0933 0026222 139.6251 220.6764 13.85445286146797,13.85445286,0.0026222,LEO
12785,COSMOS 1300,1981,94.19,-1.0,UNK,82.5,Inactive,0,LEO,Russia,Russia/USSR,Unknown,Unknown,Tsiklon,1 12785U 81082A   24030.51515458  .00014493  00000+0  51652-3 0  9997,2 12785  82.4989 194.0280 0001055  81.2677 278.8682 15.28797899318942,15.28797899,0.0001055,LEO
4594,COSMOS 374,1970,111.16,-1.0,UNK,62.95,Inactive,0,LEO,Kazakhstan,Russia/USSR,Unknown,Unknown,Tsiklon,1 04594U 70089A   24030.47393095  .00000426  00000+0  24031-3 0  9999,2 04594  62.9499  79.0076 0923747 342.1568  14.8885 12.95469535556406,12.95469535,0.0923747,LEO
20978,DMSP 5D-2 F10 (USA 68),1990,100.08,-1.0,-,98.73,Inactive,0,LEO,USA,USA,Unknown,Unknown,Unknown,1 20978U 90105A   24030.07897516  .00000528  00000+0  18132-3 0  9995,2 20978  98.7311  68.6609 0072295 354.0681   5.9642 14.38898346737719,14.38898346,0.0072295,LEO
4598,COSMOS 375,1970,111.06,-1.0,UNK,62.81,Inactive,0,LEO,Kazakhstan,Russia/USSR,Unknown,Unknown,Tsiklon,1 04598U 70091A   24030.06549030  .00000373  00000+0  14988-3 0  9994,2 04598  62.8083 289.8157 0993074  88.1417 283.2856 12.96622827515376,12.96622827,0.0993074,LEO
12791,COSMOS 1302,1981,100.39,-1.0,UNK,74.03,Inactive,0,LEO,Russia,Russia/USSR,Military,Unknown,Kosmos,1 12791U 81084A   24030.13468730  .00000272  00000+0  10568-3 0  9995,2 12791  74.0278  24.3104 0017838  25.0024 335.1987 14.34466246218348,14.34466246,0.0017838,LEO
37372,COSMOS 2471 [GLONASS-K],2011,676.34,935.0,-,65.83,Inactive,1,MEO,Russia,Russia/USSR,Commercial/Military,Navigation (Global or Regional Positioning),Soyuz,1 37372U 11009A   24027.48104936 -.00000075  00000+0  00000+0 0  9994,2 37372  65.8306 343.7727 0009476 329.1613  36.1915  2.12910377100510,2.12910377,0.0009476,MEO
